OBJECT_NAME,OBJECT_ID,EPOCH,MEAN_MOTION,ECCENTRICITY,INCLINATION,RA_OF_ASC_NODE,ARG_OF_PERICENTER,MEAN_ANOMALY,EPHEMERIS_TYPE,CLASSIFICATION_TYPE,NORAD_CAT_ID,ELEMENT_SET_NO,REV_AT_EPOCH,BSTAR,MEAN_MOTION_DOT,MEAN_MOTION_DDOT
OCEANSAT-2,2009-051A,2026-07-02T18:48:13.398624,13.99659127,.0016484,98.2326,169.0782,189.6271,170.4582,0,U,35931,999,88151,-.12729E-3,-.224E-5,0
WORLDVIEW-2 (WV-2),2009-055A,2026-07-02T18:01:31.126944,14.37904081,.0004694,98.4762,256.9880,161.2519,198.8842,0,U,35946,999,87788,.68215E-4,.162E-5,0
SMOS,2009-059A,2026-07-02T18:09:21.848832,14.39781159,.0001306,98.4426,10.8633,87.1942,272.9395,0,U,36036,999,87569,.10645E-3,.29E-5,0
YAOGAN-7,2009-069A,2026-07-02T15:49:47.178048,14.78025724,.0024437,98.0051,69.4298,352.8193,7.2664,0,U,36110,999,89191,.87169E-4,.579E-5,0
TANDEM-X,2010-030A,2026-07-01T14:48:18.164160,15.19152803,.00017924,97.4457,190.1177,96.8129,263.3310,0,U,36605,999,88883,.31705549E-4,.599E-5,0
CARTOSAT-2B,2010-035A,2026-07-02T18:26:33.668736,14.78604056,.0012065,97.9943,234.2185,135.1529,225.0659,0,U,36795,999,86215,.12689E-3,.877E-5,0
YAOGAN-10,2010-038A,2026-07-02T18:54:22.660992,14.85398124,.0001757,97.8967,207.0675,85.1359,30.1710,0,U,36834,999,85952,.25087E-3,.2106E-4,0
COSMO-SKYMED 4,2010-060A,2026-07-02T18:26:50.439840,14.82158098,.0001464,97.8884,7.1422,83.8109,276.3271,0,U,37216,999,84687,.51539E-4,.358E-5,0
RESOURCESAT-2,2011-015A,2026-07-02T18:49:31.211328,14.21603694,.0010849,98.7638,251.1180,206.9048,153.1567,0,U,37387,999,78839,.71196E-4,.112E-5,0
HAIYANG-2A,2011-043A,2026-07-02T18:22:08.804352,13.73853837,.0004368,99.3385,186.0914,61.7977,298.3612,0,U,37781,999,74879,.15653E-4,-.29E-6,0
RASAT,2011-044D,2026-07-02T18:59:15.228672,14.68183328,.0021355,98.0585,274.9502,139.8342,317.1353,0,U,37791,999,79547,.18339E-3,.101E-4,0
SRMSAT,2011-058D,2026-07-02T13:30:11.390112,14.11578853,.0011821,19.9731,326.4081,13.5504,59.6043,0,U,37841,999,75999,.72828E-4,.399E-5,0
PLEIADES 1A,2011-076F,2026-07-02T18:48:04.915008,14.58540962,.0001763,98.1976,258.6766,86.1254,61.9231,0,U,38012,999,77426,.10168E-3,.427E-5,0
ZIYUAN 1-02C (ZY 1-02C),2011-079A,2026-07-02T19:23:11.310720,14.38227291,.0005123,98.4068,250.7895,260.0522,209.6751,0,U,38038,999,76145,.16772E-3,.467E-5,0
ARIRANG-3 (KOMPSAT-3),2012-025B,2026-07-02T18:31:12.770112,14.62220253,.0006748,98.1178,140.9633,70.5600,289.6330,0,U,38338,999,75362,.11074E-3,.511E-5,0
EXACTVIEW-1 (ADS-1B),2012-039C,2026-07-02T14:49:57.201024,14.24989248,.0011807,98.9795,301.3580,124.4875,235.7420,0,U,38709,999,72490,.84067E-4,.15E-5,0
SPOT 6,2012-047A,2026-07-02T18:29:32.023392,14.58532348,.0001245,98.2116,250.8970,76.4868,283.6470,0,U,38755,999,73532,.10411E-3,.438E-5,0
PLEIADES 1B,2012-068A,2026-07-02T17:17:41.021952,14.58570592,.000171,98.1947,258.5585,83.2156,276.9238,0,U,39019,999,72311,.10858E-3,.459E-5,0
GOKTURK 2,2012-073A,2026-07-02T19:31:12.266688,14.75558829,.0001024,97.6808,20.4607,62.8352,297.2962,0,U,39030,999,72681,.90152E-4,.567E-5,0
LANDSAT 8,2013-008A,2026-07-02T18:00:16.160256,14.57105194,.000135,98.2297,253.7002,93.4816,266.6537,0,U,39084,999,70016,.98514E-4,.398E-5,0
SARAL,2013-009A,2026-07-02T18:04:01.266816,14.32893401,.0000968,98.5553,10.1230,206.9835,153.1299,0,U,39086,999,69783,-.40912E-5,-.55E-6,0
GAOFEN-1,2013-018A,2026-07-02T18:50:25.164672,14.76507525,.0015993,97.9093,255.5360,212.2055,147.8180,0,U,39150,999,71054,.12141E-3,.797E-5,0
VNREDSAT 1,2013-021B,2026-07-02T17:33:00.502848,14.64873663,.000169,97.9070,236.5506,81.1569,278.9826,0,U,39160,999,70256,.16112E-3,.815E-5,0
ARIRANG-5 (KOMPSAT-5),2013-042A,2026-07-02T19:05:39.835680,15.04544704,.0005167,97.6198,10.2754,84.9378,275.2438,0,U,39227,999,70620,.1871E-3,.2562E-4,0
SKYSAT-A,2013-066C,2026-07-02T14:25:01.007040,15.13058802,.001972,97.3803,232.5070,259.8177,100.0830,0,U,39418,999,69081,.19977E-3,.3484E-4,0
DUBAISAT-2,2013-066D,2026-07-02T18:34:00.818112,15.10299090,.0010612,97.4573,173.5102,349.7254,10.3757,0,U,39419,999,68874,.23644E-3,.3815E-4,0
GPM-CORE,2014-009C,2026-07-02T17:56:09.257568,15.44894510,.0011243,64.9710,256.0031,257.8826,102.1056,0,U,39574,999,70021,.22559E-3,.1044E-3,0
SENTINEL-1A,2014-016A,2026-07-02T17:27:34.578720,14.59199121,.0001401,98.1774,191.0332,85.4953,274.6407,0,U,39634,999,65228,-.2027E-4,-.141E-5,0
KAZEOSAT 1,2014-024A,2026-07-02T18:31:38.381664,14.42086610,.0001155,98.3205,255.8317,77.7286,282.4033,0,U,39731,999,64080,.11181E-3,.325E-5,0
ALOS-2,2014-029A,2026-07-02T18:17:48.105312,14.79471987,.0001625,97.9231,280.7031,90.7515,269.3883,0,U,39766,999,65388,.17407E-3,.1249E-4,0
KAZEOSAT 2,2014-033A,2026-07-02T18:57:51.926112,14.85490275,.0006936,97.5394,22.5770,269.1496,90.8925,0,U,40010,999,65127,.13571E-3,.1121E-4,0
